NORAD_CAT_ID,OBJECT_NAME,OBJECT_TYPE,EPOCH,MEAN_MOTION,ECCENTRICITY,INCLINATION,RA_OF_ASC_NODE,ARG_OF_PERICENTER,MEAN_ANOMALY,BSTAR,MEAN_MOTION_DOT,MEAN_MOTION_DDOT,TLE_LINE0,TLE_LINE1,TLE_LINE2,SEMIMAJOR_AXIS,PERIOD,APOGEE,PERIGEE,DECAYED
50804.0,STARLINK-3323,PAYLOAD,2022-12-06 19:29:26,15.08832009,0.0002141,53.2185,96.2163,40.7172,319.398,-6.4393e-05,-1.313e-05,0.0,0 STARLINK-3323,1 50804U 22001B   22340.81211055 -.00001313  00000-0 -64393-4 0  9995,2 50804  53.2185  96.2163 0002141  40.7172 319.3980 15.08832009 51060,6917.905,95.438,541.251,538.289,0.0
50804.0,STARLINK-3323,PAYLOAD,2022-12-07 19:20:13,15.08836955,0.0002015,53.2187,91.755,39.2226,320.8912,-4.1706e-05,-9.52e-06,0.0,0 STARLINK-3323,1 50804U 22001B   22341.80571192 -.00000952  00000-0 -41706-4 0  9997,2 50804  53.2187  91.7550 0002015  39.2226 320.8912 15.08836955 51218,6917.89,95.438,541.149,538.361,0.0
50804.0,STARLINK-3323,PAYLOAD,2022-12-08 00:06:22,15.08840413,0.0002078,53.2182,90.863,36.8419,323.2716,7.6637e-07,-2.76e-06,0.0,0 STARLINK-3323,1 50804U 22001B   22342.00442618 -.00000276  00000-0  76637-6 0  9991,2 50804  53.2182  90.8630 0002078  36.8419 323.2716 15.08840413 52492,6917.879,95.438,541.182,538.307,0.0
50804.0,STARLINK-3323,PAYLOAD,2022-12-08 08:03:18,15.0883918,0.0001729,53.2184,89.3764,29.5319,330.577,7.7585e-05,9.47e-06,0.0,0 STARLINK-3323,1 50804U 22001B   22342.33562633  .00000947  00000-0  77585-4 0  9992,2 50804  53.2184  89.3764 0001729  29.5319 330.5770 15.08839180 51292,6917.8830000000025,95.438,540.944,538.552,0.0
50804.0,STARLINK-3323,PAYLOAD,2022-12-08 14:24:50,15.0885039,0.0002099,53.2183,88.1869,28.0192,332.0912,0.00033623,5.069e-05,0.0,0 STARLINK-3323,1 50804U 22001B   22342.60058112  .00005069  00000-0  33623-3 0  9998,2 50804  53.2183  88.1869 0002099  28.0192 332.0912 15.08850390 52582,6917.849,95.437,541.1659999999998,538.262,0.0
50804.0,STARLINK-3323,PAYLOAD,2022-12-09 15:51:00,15.08845065,0.0001967,53.219,83.4313,21.5277,338.5797,0.00025707,3.806e-05,0.0,0 STARLINK-3323,1 50804U 22001B   22343.66042119  .00003806  00000-0  25707-3 0  9996,2 50804  53.2190  83.4313 0001967  21.5277 338.5797 15.08845065 52740,6917.865,95.437,541.091,538.369,0.0
50804.0,STARLINK-3323,PAYLOAD,2022-12-09 19:01:46,15.08823022,0.0001063,53.2178,82.8362,6.3056,353.7949,-0.00015821,-2.804e-05,0.0,0 STARLINK-3323,1 50804U 22001B   22343.79290417 -.00002804  00000-0 -15821-3 0  9991,2 50804  53.2178  82.8362 0001063   6.3056 353.7949 15.08823022 52765,6917.932,95.439,540.533,539.062,0.0
50804.0,STARLINK-3323,PAYLOAD,2022-12-10 14:06:25,15.08834916,0.0002201,53.2186,79.2681,38.213,321.9018,9.8206e-06,-1.32e-06,0.0,0 STARLINK-3323,1 50804U 22001B   22344.58779085 -.00000132  00000-0  98206-5 0  9993,2 50804  53.2186  79.2681 0002201  38.2130 321.9018 15.08834916 51633,6917.896,95.438,541.284,538.238,0.0
50804.0,STARLINK-3323,PAYLOAD,2022-12-10 15:41:47,15.08839211,0.0002087,53.218,78.9694,42.3824,317.7329,7.2631e-05,8.68e-06,0.0,0 STARLINK-3323,1 50804U 22001B   22344.65402616  .00000868  00000-0  72631-4 0  9992,2 50804  53.2180  78.9694 0002087  42.3824 317.7329 15.08839211 52895,6917.8830000000025,95.438,541.192,538.304,0.0
50804.0,STARLINK-3323,PAYLOAD,2022-12-11 12:21:49,15.08846193,0.0002206,53.2177,75.1041,33.6337,326.4795,0.00058552,9.044e-05,0.0,0 STARLINK-3323,1 50804U 22001B   22345.51515064  .00009044  00000-0  58552-3 0  9990,2 50804  53.2177  75.1041 0002206  33.6337 326.4795 15.08846193 51778,6917.861,95.437,541.253,538.2,0.0
50804.0,STARLINK-3323,PAYLOAD,2022-12-11 18:43:21,15.08845312,0.0002582,53.2172,73.9155,30.8257,329.2886,0.00023277,3.419e-05,0.0,0 STARLINK-3323,1 50804U 22001B   22345.78011070  .00003419  00000-0  23277-3 0  9993,2 50804  53.2172  73.9155 0002582  30.8257 329.2886 15.08845312 53060,6917.864000000001,95.437,541.515,537.943,0.0
50804.0,STARLINK-3323,PAYLOAD,2022-12-12 12:12:36,15.08844755,0.0002237,53.2176,70.6438,33.1127,327.0005,0.00021085,3.069e-05,0.0,0 STARLINK-3323,1 50804U 22001B   22346.50875019  .00003069  00000-0  21085-3 0  9991,2 50804  53.2176  70.6438 0002237  33.1127 327.0005 15.08844755 51923,6917.866,95.437,541.278,538.183,0.0
50804.0,STARLINK-3323,PAYLOAD,2022-12-12 16:58:45,15.08838584,0.0002407,53.2181,69.7515,30.3285,329.7846,5.7792e-05,6.31e-06,0.0,0 STARLINK-3323,1 50804U 22001B   22346.70747270  .00000631  00000-0  57792-4 0  9997,2 50804  53.2181  69.7515 0002407  30.3285 329.7846 15.08838584 53205,6917.885,95.438,541.415,538.085,0.0
50804.0,STARLINK-3323,PAYLOAD,2022-12-13 10:27:59,15.08838912,0.0002123,53.2177,66.4806,23.0184,337.0903,0.00030755,4.61e-05,0.0,0 STARLINK-3323,1 50804U 22001B   22347.43611015  .00004610  00000-0  30755-3 0  9995,2 50804  53.2177  66.4806 0002123  23.0184 337.0903 15.08838912 52063,6917.884,95.438,541.217,538.28,0.0
50804.0,STARLINK-3323,PAYLOAD,2022-12-13 15:14:09,15.08844757,0.0002072,53.2174,65.5875,29.9888,330.1222,0.00021542,3.142e-05,0.0,0 STARLINK-3323,1 50804U 22001B   22347.63483023  .00003142  00000-0  21542-3 0  9996,2 50804  53.2174  65.5875 0002072  29.9888 330.1222 15.08844757 52090,6917.866,95.437,541.164,538.297,0.0
50804.0,STARLINK-3323,PAYLOAD,2022-12-14 08:43:23,15.08846564,0.0002152,53.2174,62.3168,29.6856,330.4258,0.00021045,3.063e-05,0.0,0 STARLINK-3323,1 50804U 22001B   22348.36346901  .00003063  00000-0  21045-3 0  9990,2 50804  53.2174  62.3168 0002152  29.6856 330.4258 15.08846564 53452,6917.86,95.437,541.214,538.237,0.0
50804.0,STARLINK-3323,PAYLOAD,2022-12-14 11:54:10,15.08843724,0.0002288,53.2166,61.7234,36.254,323.8607,0.00013578,1.874e-05,0.0,0 STARLINK-3323,1 50804U 22001B   22348.49595078  .00001874  00000-0  13578-3 0  9995,2 50804  53.2166  61.7234 0002288  36.2540 323.8607 15.08843724 52227,6917.869000000002,95.437,541.317,538.151,0.0
50804.0,STARLINK-3323,PAYLOAD,2022-12-14 16:40:19,15.08840053,0.0002211,53.2165,60.8308,33.7634,326.3499,-8.3131e-05,-1.611e-05,0.0,0 STARLINK-3323,1 50804U 22001B   22348.69467182 -.00001611  00000-0 -83131-4 0  9995,2 50804  53.2165  60.8308 0002211  33.7634 326.3499 15.08840053 53501,6917.88,95.438,541.275,538.216,0.0
50804.0,STARLINK-3323,PAYLOAD,2022-12-15 13:20:20,15.08840753,0.0002355,53.2162,56.965,28.0387,332.0731,0.00010454,1.376e-05,0.0,0 STARLINK-3323,1 50804U 22001B   22349.55579320  .00001376  00000-0  10454-3 0  9992,2 50804  53.2162  56.9650 0002355  28.0387 332.0731 15.08840753 52380,6917.878000000002,95.438,541.372,538.114,0.0
50804.0,STARLINK-3323,PAYLOAD,2022-12-15 16:31:06,15.08844208,0.0002384,53.2162,56.3701,28.1183,331.9937,0.00016604,2.356e-05,0.0,0 STARLINK-3323,1 50804U 22001B   22349.68827155  .00002356  00000-0  16604-3 0  9990,2 50804  53.2162  56.3701 0002384  28.1183 331.9937 15.08844208 52406,6917.868,95.437,541.382,538.0830000000002,0.0
50804.0,STARLINK-3323,PAYLOAD,2022-12-15 21:17:16,15.08844728,0.0002373,53.2163,55.478,28.3588,331.7533,0.00016067,2.27e-05,0.0,0 STARLINK-3323,1 50804U 22001B   22349.88699091  .00002270  00000-0  16067-3 0  9996,2 50804  53.2163  55.4780 0002373  28.3588 331.7533 15.08844728 53681,6917.866,95.437,541.373,538.089,0.0
50804.0,STARLINK-3323,PAYLOAD,2022-12-16 13:11:07,15.08843199,0.0002512,53.2164,52.5045,30.3823,329.7314,0.00013189,1.811e-05,0.0,0 STARLINK-3323,1 50804U 22001B   22350.54939148  .00001811  00000-0  13189-3 0  9993,2 50804  53.2164  52.5045 0002512  30.3823 329.7314 15.08843199 52532,6917.871,95.437,541.4730000000002,537.998,0.0
50804.0,STARLINK-3323,PAYLOAD,2022-12-16 14:46:30,15.08842565,0.0002551,53.2159,52.208,29.8812,330.2325,0.00012123,1.642e-05,0.0,0 STARLINK-3323,1 50804U 22001B   22350.61563207  .00001642  00000-0  12123-3 0  9999,2 50804  53.2159  52.2080 0002551  29.8812 330.2325 15.08842565 52542,6917.873000000001,95.437,541.502,537.9730000000002,0.0
50804.0,STARLINK-3323,PAYLOAD,2022-12-17 03:29:35,15.08840781,0.000257,53.216,49.82899999999999,29.9654,330.1485,7.8284e-05,9.58e-06,0.0,0 STARLINK-3323,1 50804U 22001B   22351.14555285  .00000958  00000-0  78284-4 0  9995,2 50804  53.2160  49.8290 0002570  29.9654 330.1485 15.08840781 53876,6917.878000000002,95.438,541.521,537.965,0.0
50804.0,STARLINK-3323,PAYLOAD,2022-12-17 11:26:31,15.08838723,0.0002535,53.2164,48.3413,30.0059,330.1078,0.00010082,1.316e-05,0.0,0 STARLINK-3323,1 50804U 22001B   22351.47675510  .00001316  00000-0  10082-3 0  9995,2 50804  53.2164  48.3413 0002535  30.0059 330.1078 15.08838723 52672,6917.884,95.438,541.503,537.996,0.0
50804.0,STARLINK-3323,PAYLOAD,2022-12-17 16:12:41,15.08836996,0.0002602,53.2164,47.4493,26.8187,333.2939,6.135899999999999e-05,6.88e-06,0.0,0 STARLINK-3323,1 50804U 22001B   22351.67547616  .00000688  00000-0  61359-4 0  9997,2 50804  53.2164  47.4493 0002602  26.8187 333.2939 15.08836996 52704,6917.89,95.438,541.555,537.955,0.0
50804.0,STARLINK-3323,PAYLOAD,2022-12-18 03:20:23,15.08833741,0.0002799,53.2166,45.3679,29.5527,330.5622,-4.624e-05,-1.024e-05,0.0,0 STARLINK-3323,1 50804U 22001B   22352.13916001 -.00001024  00000-0 -46240-4 0  9996,2 50804  53.2166  45.3679 0002799  29.5527 330.5622 15.08833741 54025,6917.9,95.438,541.701,537.828,0.0
50804.0,STARLINK-3323,PAYLOAD,2022-12-18 12:52:42,15.08834129,0.0002443,53.2168,43.5831,28.7809,331.3318,-1.9883e-05,-6.05e-06,0.0,0 STARLINK-3323,1 50804U 22001B   22352.53660667 -.00000605  00000-0 -19883-4 0  9991,2 50804  53.2168  43.5831 0002443  28.7809 331.3318 15.08834129 52836,6917.898,95.438,541.453,538.073,0.0
50804.0,STARLINK-3323,PAYLOAD,2022-12-18 20:49:38,15.08837576,0.0002433,53.2172,42.096,29.1513,330.9615,6.4068e-05,7.31e-06,0.0,0 STARLINK-3323,1 50804U 22001B   22352.86780340  .00000731  00000-0  64068-4 0  9991,2 50804  53.2172  42.0960 0002433  29.1513 330.9615 15.08837576 52883,6917.888000000001,95.438,541.436,538.07,0.0
